start=new Date('2021-11-13T00:00:00.000Z').valueOf();
sats=[{"ELEMENT_SET_NO":"999","OBJECT_TYPE":"PAYLOAD","INCLINATION":"53.0545","SEMIMAJOR_AXIS":"6925.361","RCS_SIZE":"LARGE","MEAN_MOTION_DDOT":"0.0000000000000","PERIAPSIS":"546.056","EPHEMERIS_TYPE":"0","EPOCH":"2021-11-12T21:18:39.229920","ECCENTRICITY":"0.00016890","OBJECT_NAME":"STARLINK-1585","BSTAR":"-0.00003249100000","PERIOD":"95.592","GP_ID":"189643694","LAUNCH_DATE":"2020-08-18","SITE":"AFETR","APOAPSIS":"548.395","REF_FRAME":"TEME","RA_OF_ASC_NODE":"179.6578","MEAN_ELEMENT_THEORY":"SGP4","MEAN_MOTION_DOT":"-0.00000765","COUNTRY_CODE":"US","REV_AT_EPOCH":"6853","TIME_SYSTEM":"UTC","CENTER_NAME":"EARTH","MEAN_MOTION":"15.06396090","TLE_LINE2":"2 46117  53.0545 179.6578 0001689  69.1317 290.9853 15.06396090 68534","DECAY_DATE":null,"CLASSIFICATION_TYPE":"U","MEAN_ANOMALY":"290.9853","NORAD_CAT_ID":"46117","FILE":"3213639","ARG_OF_PERICENTER":"69.1317","OBJECT_ID":"2020-057A","TLE_LINE1":"1 46117U 20057A   21316.88795405 -.00000765  00000-0 -32491-4 0  9995"},{"OBJECT_NAME":"STARLINK-1588","GP_ID":"189644443","PERIOD":"95.592","LAUNCH_DATE":"2020-08-18","SITE":"AFETR","BSTAR":"0.00003043400000","INCLINATION":"53.0531","SEMIMAJOR_AXIS":"6925.337","ELEMENT_SET_NO":"999","OBJECT_TYPE":"PAYLOAD","EPOCH":"2021-11-12T23:07:28.382016","EPHEMERIS_TYPE":"0","ECCENTRICITY":"0.00015200","MEAN_MOTION_DDOT":"0.0000000000000","RCS_SIZE":"LARGE","PERIAPSIS":"546.149","DECAY_DATE":null,"CLASSIFICATION_TYPE":"U","TLE_LINE1":"1 46118U 20057B   21316.96352294  .00000172  00000-0  30434-4 0  9995","ARG_OF_PERICENTER":"71.7210","OBJECT_ID":"2020-057B","NORAD_CAT_ID":"46118","MEAN_ANOMALY":"288.3944","FILE":"3213639","MEAN_ELEMENT_THEORY":"SGP4","APOAPSIS":"548.255","REF_FRAME":"TEME","RA_OF_ASC_NODE":"199.3163","TIME_SYSTEM":"UTC","MEAN_MOTION":"15.06403728","TLE_LINE2":"2 46118  53.0531 199.3163 0001520  71.7210 288.3944 15.06403728 69545","CENTER_NAME":"EARTH","COUNTRY_CODE":"US","MEAN_MOTION_DOT":"0.00000172","REV_AT_EPOCH":"6954"},{"RA_OF_ASC_NODE":"199.3632","REF_FRAME":"TEME","APOAPSIS":"548.335","MEAN_ELEMENT_THEORY":"SGP4","REV_AT_EPOCH":"6952","MEAN_MOTION_DOT":"0.00000863","COUNTRY_CODE":"US","CENTER_NAME":"EARTH","TLE_LINE2":"2 46119  53.0548 199.3632 0001619  71.2938 288.8227 15.06399936 69528","MEAN_MOTION":"15.06399936","TIME_SYSTEM":"UTC","CLASSIFICATION_TYPE":"U","DECAY_DATE":null,"FILE":"3213639","MEAN_ANOMALY":"288.8227","NORAD_CAT_ID":"46119","OBJECT_ID":"2020-057C","ARG_OF_PERICENTER":"71.2938","TLE_LINE1":"1 46119U 20057C   21316.95245155  .00000863  00000-0  76810-4 0  9997","ELEMENT_SET_NO":"999","OBJECT_TYPE":"PAYLOAD","SEMIMAJOR_AXIS":"6925.349","INCLINATION":"53.0548","PERIAPSIS":"546.093","RCS_SIZE":"LARGE","MEAN_MOTION_DDOT":"0.0000000000000","ECCENTRICITY":"0.00016190","EPHEMERIS_TYPE":"0","EPOCH":"2021-11-12T22:51:31.813920","OBJECT_NAME":"STARLINK-1593","BSTAR":"0.00007681000000","SITE":"AFETR","PERIOD":"95.592","GP_ID":"189644682","LAUNCH_DATE":"2020-08-18"},{"APOAPSIS":"548.472","RA_OF_ASC_NODE":"199.4261","REF_FRAME":"TEME","MEAN_ELEMENT_THEORY":"SGP4","COUNTRY_CODE":"US","MEAN_MOTION_DOT":"0.00001418","REV_AT_EPOCH":"6954","TIME_SYSTEM":"UTC","TLE_LINE2":"2 46120  53.0541 199.4261 0001788  61.7737 298.3432 15.06393569 69542","MEAN_MOTION":"15.06393569","CENTER_NAME":"EARTH","DECAY_DATE":null,"CLASSIFICATION_TYPE":"U","MEAN_ANOMALY":"298.3432","NORAD_CAT_ID":"46120","FILE":"3213639","TLE_LINE1":"1 46120U 20057D   21316.93771331  .00001418  00000-0  11410-3 0  9998","OBJECT_ID":"2020-057D","ARG_OF_PERICENTER":"61.7737","OBJECT_TYPE":"PAYLOAD","ELEMENT_SET_NO":"999","SEMIMAJOR_AXIS":"6925.368","INCLINATION":"53.0541","MEAN_MOTION_DDOT":"0.0000000000000","RCS_SIZE":"LARGE","PERIAPSIS":"545.995","EPOCH":"2021-11-12T22:30:18.429984","EPHEMERIS_TYPE":"0","ECCENTRICITY":"0.00017880","OBJECT_NAME":"STARLINK-1601","BSTAR":"0.00011410000000","LAUNCH_DATE":"2020-08-18","GP_ID":"189645428","PERIOD":"95.593","SITE":"AFETR"},{"OBJECT_NAME":"STARLINK-1602","BSTAR":"0.00008049300000","SITE":"AFETR","GP_ID":"189643194","LAUNCH_DATE":"2020-08-18","PERIOD":"95.593","ELEMENT_SET_NO":"999","OBJECT_TYPE":"PAYLOAD","INCLINATION":"53.0540","SEMIMAJOR_AXIS":"6925.372","PERIAPSIS":"546.153","RCS_SIZE":"LARGE","MEAN_MOTION_DDOT":"0.0000000000000","ECCENTRICITY":"0.00015660","EPHEMERIS_TYPE":"0","EPOCH":"2021-11-12T21:45:11.530944","CLASSIFICATION_TYPE":"U","DECAY_DATE":null,"FILE":"3213639","NORAD_CAT_ID":"46121","MEAN_ANOMALY":"301.4214","ARG_OF_PERICENTER":"58.6928","OBJECT_ID":"2020-057E","TLE_LINE1":"1 46121U 20057E   21316.90638346  .00000917  00000-0  80493-4 0  9995","REF_FRAME":"TEME","RA_OF_ASC_NODE":"179.5685","APOAPSIS":"548.322","MEAN_ELEMENT_THEORY":"SGP4","REV_AT_EPOCH":"6853","MEAN_MOTION_DOT":"0.00000917","COUNTRY_CODE":"US","CENTER_NAME":"EARTH","MEAN_MOTION":"15.06392321","TLE_LINE2":"2 46121  53.0540 179.5685 0001566  58.6928 301.4214 15.06392321 68539","TIME_SYSTEM":"UTC"},{"APOAPSIS":"548.368","RA_OF_ASC_NODE":"159.8173","REF_FRAME":"TEME","MEAN_ELEMENT_THEORY":"SGP4","COUNTRY_CODE":"US","MEAN_MOTION_DOT":"0.00000290","REV_AT_EPOCH":"7006","TIME_SYSTEM":"UTC","TLE_LINE2":"2 46122  53.0531 159.8173 0001660  71.2292 288.8877 15.06398338 70061","MEAN_MOTION":"15.06398338","CENTER_NAME":"EARTH","DECAY_DATE":null,"CLASSIFICATION_TYPE":"U","MEAN_ANOMALY":"288.8877","NORAD_CAT_ID":"46122","FILE":"3213639","TLE_LINE1":"1 46122U 20057F   21316.84925072  .00000290  00000-0  38347-4 0  9999","OBJECT_ID":"2020-057F","ARG_OF_PERICENTER":"71.2292","ELEMENT_SET_NO":"999","OBJECT_TYPE":"PAYLOAD","SEMIMAJOR_AXIS":"6925.354","INCLINATION":"53.0531","MEAN_MOTION_DDOT":"0.0000000000000","RCS_SIZE":"LARGE","PERIAPSIS":"546.069","EPOCH":"2021-11-12T20:22:55.262208","EPHEMERIS_TYPE":"0","ECCENTRICITY":"0.00016600","OBJECT_NAME":"STARLINK-1604","BSTAR":"0.00003834700000","GP_ID":"189643943","PERIOD":"95.592","LAUNCH_DATE":"2020-08-18","SITE":"AFETR"},{"TIME_SYSTEM":"UTC","CENTER_NAME":"EARTH","TLE_LINE2":"2 46123  53.0535 159.8877 0001603  73.6482 286.4683 15.06391249 70086","MEAN_MOTION":"15.06391249","MEAN_MOTION_DOT":"-0.00000920","COUNTRY_CODE":"US","REV_AT_EPOCH":"7008","MEAN_ELEMENT_THEORY":"SGP4","APOAPSIS":"548.351","RA_OF_ASC_NODE":"159.8877","REF_FRAME":"TEME","OBJECT_ID":"2020-057G","ARG_OF_PERICENTER":"73.6482","TLE_LINE1":"1 46123U 20057G   21316.83451274 -.00000920  00000-0 -42849-4 0  9991","MEAN_ANOMALY":"286.4683","NORAD_CAT_ID":"46123","FILE":"3213639","DECAY_DATE":null,"CLASSIFICATION_TYPE":"U","EPHEMERIS_TYPE":"0","EPOCH":"2021-11-12T20:01:41.900736","ECCENTRICITY":"0.00016030","RCS_SIZE":"LARGE","MEAN_MOTION_DDOT":"0.0000000000000","PERIAPSIS":"546.130","SEMIMAJOR_AXIS":"6925.375","INCLINATION":"53.0535","OBJECT_TYPE":"PAYLOAD","ELEMENT_SET_NO":"999","GP_ID":"189644182","PERIOD":"95.593","LAUNCH_DATE":"2020-08-18","SITE":"AFETR","BSTAR":"-0.00004284900000","OBJECT_NAME":"STARLINK-1605"},{"MEAN_MOTION_DOT":"0.00002274","COUNTRY_CODE":"US","REV_AT_EPOCH":"6881","TIME_SYSTEM":"UTC","CENTER_NAME":"EARTH","TLE_LINE2":"2 46124  53.0534 159.8603 0001443  64.8940 295.2199 15.06400145 68810","MEAN_MOTION":"15.06400145","APOAPSIS":"548.212","REF_FRAME":"TEME","RA_OF_ASC_NODE":"159.8603","MEAN_ELEMENT_THEORY":"SGP4","MEAN_ANOMALY":"295.2199","NORAD_CAT_ID":"46124","FILE":"3213639","OBJECT_ID":"2020-057H","ARG_OF_PERICENTER":"64.8940","TLE_LINE1":"1 46124U 20057H   21316.84188120  .00002274  00000-0  17148-3 0  9995","DECAY_DATE":null,"CLASSIFICATION_TYPE":"U","RCS_SIZE":"LARGE","MEAN_MOTION_DDOT":"0.0000000000000","PERIAPSIS":"546.214","EPHEMERIS_TYPE":"0","EPOCH":"2021-11-12T20:12:18.535680","ECCENTRICITY":"0.00014430","OBJECT_TYPE":"PAYLOAD","ELEMENT_SET_NO":"999","SEMIMAJOR_AXIS":"6925.348","INCLINATION":"53.0534","BSTAR":"0.00017148000000","GP_ID":"189644928","PERIOD":"95.592","LAUNCH_DATE":"2020-08-18","SITE":"AFETR","OBJECT_NAME":"STARLINK-1614"},{"DECAY_DATE":null,"CLASSIFICATION_TYPE":"U","OBJECT_ID":"2020-057J","ARG_OF_PERICENTER":"66.7602","TLE_LINE1":"1 46125U 20057J   21316.95613910  .00002091  00000-0  15925-3 0  9996","MEAN_ANOMALY":"293.3580","NORAD_CAT_ID":"46125","FILE":"3213639","MEAN_ELEMENT_THEORY":"SGP4","APOAPSIS":"548.482","RA_OF_ASC_NODE":"199.3355","REF_FRAME":"TEME","TIME_SYSTEM":"UTC","CENTER_NAME":"EARTH","MEAN_MOTION":"15.06400900","TLE_LINE2":"2 46125  53.0529 199.3355 0001836  66.7602 293.3580 15.06400900 69521","MEAN_MOTION_DOT":"0.00002091","COUNTRY_CODE":"US","REV_AT_EPOCH":"6952","OBJECT_NAME":"STARLINK-1618","LAUNCH_DATE":"2020-08-18","GP_ID":"189643695","PERIOD":"95.592","SITE":"AFETR","BSTAR":"0.00015925000000","SEMIMAJOR_AXIS":"6925.346","INCLINATION":"53.0529","ELEMENT_SET_NO":"999","OBJECT_TYPE":"PAYLOAD","EPHEMERIS_TYPE":"0","EPOCH":"2021-11-12T22:56:50.418240","ECCENTRICITY":"0.00018360","RCS_SIZE":"LARGE","MEAN_MOTION_DDOT":"0.0000000000000","PERIAPSIS":"545.939"},{"APOAPSIS":"547.787","RA_OF_ASC_NODE":"199.3218","REF_FRAME":"TEME","MEAN_ELEMENT_THEORY":"SGP4","COUNTRY_CODE":"US","MEAN_MOTION_DOT":"0.00022060","REV_AT_EPOCH":"6826","TIME_SYSTEM":"UTC","TLE_LINE2":"2 46126  53.0816 199.3218 0001564  71.6001 288.5158 15.06566215 68264","MEAN_MOTION":"15.06566215","CENTER_NAME":"EARTH","DECAY_DATE":null,"CLASSIFICATION_TYPE":"U","NORAD_CAT_ID":"46126","MEAN_ANOMALY":"288.5158","FILE":"3213639","TLE_LINE1":"1 46126U 20057K   21316.93017201  .00022060  00000-0  14886-2 0  9998","ARG_OF_PERICENTER":"71.6001","OBJECT_ID":"2020-057K","OBJECT_TYPE":"PAYLOAD","ELEMENT_SET_NO":"999","SEMIMAJOR_AXIS":"6924.839","INCLINATION":"53.0816","MEAN_MOTION_DDOT":"0.0000000000000","RCS_SIZE":"LARGE","PERIAPSIS":"545.621","EPOCH":"2021-11-12T22:19:26.861664","EPHEMERIS_TYPE":"0","ECCENTRICITY":"0.00015640","OBJECT_NAME":"STARLINK-1619","BSTAR":"0.00148860000000","LAUNCH_DATE":"2020-08-18","GP_ID":"189644444","PERIOD":"95.582","SITE":"AFETR"}];
